1 00006U          23274.66666667  .00000000  00000-0  00000-0 0 00006
2 00006 097.3619 100.1751 0009473 299.7549 340.1742 15.25701009000018
